{
  "name": "SATGUS",
  "line1": "1 62713U 25009DJ  25276.16783637  .00013749  00000+0  12059-2 0  9990",
  "line2": "2 62713  97.7276 355.0947 0000523 241.4236 118.6933 14.96749613 39052",
  "fetched_at": "2025-10-06T00:17:46.746669+00:00"
}